{
  "type": "FeatureCollection",
  "features": [
    {
      "type": "Feature",
      "properties": {
        "norad_id": 48859,
        "name": "GPS BIII-5  (PRN 11)",
        "group": "gnss",
        "lat": -6.207853884769014,
        "lon": 164.09297627922476,
        "alt_km": 20138.711566665865,
        "timestamp": "2025-12-17T07:00:47.145834+00:00",
        "meta_object_name": "GPS BIII-5  (PRN 11)",
        "meta_object_id": "2021-054A",
        "meta_epoch": "2025-12-08T04:14:32.423424",
        "meta_mean_motion": 2.00553627,
        "meta_eccentricity": 0.0024678,
        "meta_inclination": 55.2581,
        "meta_ra_of_asc_node": 340.1367,
        "meta_arg_of_pericenter": 233.3994,
        "meta_mean_anomaly": 212.8593,
        "meta_ephemeris_type": 0,
        "meta_classification_type": "U",
        "meta_norad_cat_id": 48859,
        "meta_element_set_no": 999,
        "meta_rev_at_epoch": 3292,
        "meta_bstar": 0,
        "meta_mean_motion_dot": -8.6e-07,
        "meta_mean_motion_ddot": 0,
        "tle_line1": "1 48859U 21054A   25342.17676416 -.00000086  00000+0  00000+0 0  9993",
        "tle_line2": "2 48859  55.2581 340.1367 0024678 233.3994 212.8593  2.00553627 32922"
      },
      "geometry": {
        "type": "Point",
        "coordinates": [
          164.09297627922476,
          -6.207853884769014
        ]
      }
    },
    {
      "type": "Feature",
      "properties": {
        "norad_id": 49336,
        "name": "QZS-1R (QZSS/PRN 196)",
        "group": "gnss",
        "lat": -31.247389531633083,
        "lon": -44.42963562640606,
        "alt_km": 33041.37998730833,
        "timestamp": "2025-12-17T07:00:47.145846+00:00",
        "meta_object_name": "QZS-1R (QZSS/PRN 196)",
        "meta_object_id": "2021-096A",
        "meta_epoch": "2025-12-16T14:02:25.911168",
        "meta_mean_motion": 1.00256555,
        "meta_eccentricity": 0.075615,
        "meta_inclination": 37.0853,
        "meta_ra_of_asc_node": 82.3023,
        "meta_arg_of_pericenter": 271.3992,
        "meta_mean_anomaly": 76.9264,
        "meta_ephemeris_type": 0,
        "meta_classification_type": "U",
        "meta_norad_cat_id": 49336,
        "meta_element_set_no": 999,
        "meta_rev_at_epoch": 1517,
        "meta_bstar": 0,
        "meta_mean_motion_dot": -2.79e-06,
        "meta_mean_motion_ddot": 0,
        "tle_line1": "1 49336U 21096A   25350.58502212 -.00000279  00000+0  00000+0 0  9990",
        "tle_line2": "2 49336  37.0853  82.3023 0756150 271.3992  76.9264  1.00256555 15175"
      },
      "geometry": {
        "type": "Point",
        "coordinates": [
          -44.42963562640606,
          -31.247389531633083
        ]
      }
    },
    {
      "type": "Feature",
      "properties": {
        "norad_id": 49809,
        "name": "GSAT0223 (GALILEO 27)",
        "group": "gnss",
        "lat": 57.0733920186502,
        "lon": 71.02223381900922,
        "alt_km": 23228.293666604353,
        "timestamp": "2025-12-17T07:00:47.145858+00:00",
        "meta_object_name": "GSAT0223 (GALILEO 27)",
        "meta_object_id": "2021-116A",
        "meta_epoch": "2025-12-16T06:27:02.542752",
        "meta_mean_motion": 1.7047608,
        "meta_eccentricity": 0.00044443,
        "meta_inclination": 57.2186,
        "meta_ra_of_asc_node": 346.6172,
        "meta_arg_of_pericenter": 253.7199,
        "meta_mean_anomaly": 285.1597,
        "meta_ephemeris_type": 0,
        "meta_classification_type": "U",
        "meta_norad_cat_id": 49809,
        "meta_element_set_no": 999,
        "meta_rev_at_epoch": 2506,
        "meta_bstar": 0,
        "meta_mean_motion_dot": -8.1e-07,
        "meta_mean_motion_ddot": 0,
        "tle_line1": "1 49809U 21116A   25350.26877943 -.00000081  00000+0  00000+0 0  9990",
        "tle_line2": "2 49809  57.2186 346.6172 0004444 253.7199 285.1597  1.70476080 25065"
      },
      "geometry": {
        "type": "Point",
        "coordinates": [
          71.02223381900922,
          57.0733920186502
        ]
      }
    },
    {
      "type": "Feature",
      "properties": {
        "norad_id": 49810,
        "name": "GSAT0224 (GALILEO 28)",
        "group": "gnss",
        "lat": -16.353786643322522,
        "lon": 177.48680518332097,
        "alt_km": 23218.373899661947,
        "timestamp": "2025-12-17T07:00:47.145870+00:00",
        "meta_object_name": "GSAT0224 (GALILEO 28)",
        "meta_object_id": "2021-116B",
        "meta_epoch": "2025-12-16T16:01:51.974688",
        "meta_mean_motion": 1.70476126,
        "meta_eccentricity": 0.00038002,
        "meta_inclination": 57.2194,
        "meta_ra_of_asc_node": 346.6052,
        "meta_arg_of_pericenter": 257.8014,
        "meta_mean_anomaly": 278.6596,
        "meta_ephemeris_type": 0,
        "meta_classification_type": "U",
        "meta_norad_cat_id": 49810,
        "meta_element_set_no": 999,
        "meta_rev_at_epoch": 2509,
        "meta_bstar": 0,
        "meta_mean_motion_dot": -8e-07,
        "meta_mean_motion_ddot": 0,
        "tle_line1": "1 49810U 21116B   25350.66796267 -.00000080  00000+0  00000+0 0  9994",
        "tle_line2": "2 49810  57.2194 346.6052 0003800 257.8014 278.6596  1.70476126 25099"
      },
      "geometry": {
        "type": "Point",
        "coordinates": [
          177.48680518332097,
          -16.353786643322522
        ]
      }
    },
    {
      "type": "Feature",
      "properties": {
        "norad_id": 52984,
        "name": "COSMOS 2557 (706K)",
        "group": "gnss",
        "lat": -14.847414427203319,
        "lon": 148.17476735605922,
        "alt_km": 19126.621818506097,
        "timestamp": "2025-12-17T07:00:47.145884+00:00",
        "meta_object_name": "COSMOS 2557 (706K)",
        "meta_object_id": "2022-075A",
        "meta_epoch": "2025-12-16T02:19:59.542752",
        "meta_mean_motion": 2.13101842,
        "meta_eccentricity": 0.001368,
        "meta_inclination": 64.4074,
        "meta_ra_of_asc_node": 320.9331,
        "meta_arg_of_pericenter": 277.1677,
        "meta_mean_anomaly": 82.672,
        "meta_ephemeris_type": 0,
        "meta_classification_type": "U",
        "meta_norad_cat_id": 52984,
        "meta_element_set_no": 999,
        "meta_rev_at_epoch": 2681,
        "meta_bstar": 0,
        "meta_mean_motion_dot": -7e-07,
        "meta_mean_motion_ddot": 0,
        "tle_line1": "1 52984U 22075A   25350.09721693 -.00000070  00000+0  00000+0 0  9992",
        "tle_line2": "2 52984  64.4074 320.9331 0013680 277.1677  82.6720  2.13101842 26815"
      },
      "geometry": {
        "type": "Point",
        "coordinates": [
          148.17476735605922,
          -14.847414427203319
        ]
      }
    },
    {
      "type": "Feature",
      "properties": {
        "norad_id": 54031,
        "name": "COSMOS 2559 (707K)",
        "group": "gnss",
        "lat": -21.931628981118422,
        "lon": -50.171157589339295,
        "alt_km": 19157.148810683604,
        "timestamp": "2025-12-17T07:00:47.145903+00:00",
        "meta_object_name": "COSMOS 2559 (707K)",
        "meta_object_id": "2022-130A",
        "meta_epoch": "2025-12-14T00:56:40.379136",
        "meta_mean_motion": 2.13101379,
        "meta_eccentricity": 0.00117642,
        "meta_inclination": 64.3815,
        "meta_ra_of_asc_node": 321.0953,
        "meta_arg_of_pericenter": 192.3475,
        "meta_mean_anomaly": 167.6228,
        "meta_ephemeris_type": 0,
        "meta_classification_type": "U",
        "meta_norad_cat_id": 54031,
        "meta_element_set_no": 999,
        "meta_rev_at_epoch": 2474,
        "meta_bstar": 0,
        "meta_mean_motion_dot": -6.6e-07,
        "meta_mean_motion_ddot": 0,
        "tle_line1": "1 54031U 22130A   25348.03935624 -.00000066  00000+0  00000+0 0  9996",
        "tle_line2": "2 54031  64.3815 321.0953 0011764 192.3475 167.6228  2.13101379 24741"
      },
      "geometry": {
        "type": "Point",
        "coordinates": [
          -50.171157589339295,
          -21.931628981118422
        ]
      }
    },
    {
      "type": "Feature",
      "properties": {
        "norad_id": 54377,
        "name": "COSMOS 2564 (761)",
        "group": "gnss",
        "lat": 64.28119282017312,
        "lon": -59.912192867134486,
        "alt_km": 19130.33300915952,
        "timestamp": "2025-12-17T07:00:47.145914+00:00",
        "meta_object_name": "COSMOS 2564 (761)",
        "meta_object_id": "2022-161A",
        "meta_epoch": "2025-12-15T18:15:16.362720",
        "meta_mean_motion": 2.13102109,
        "meta_eccentricity": 0.0008585,
        "meta_inclination": 64.7384,
        "meta_ra_of_asc_node": 198.7985,
        "meta_arg_of_pericenter": 204.4271,
        "meta_mean_anomaly": 155.6126,
        "meta_ephemeris_type": 0,
        "meta_classification_type": "U",
        "meta_norad_cat_id": 54377,
        "meta_element_set_no": 999,
        "meta_rev_at_epoch": 2372,
        "meta_bstar": 0,
        "meta_mean_motion_dot": 1.07e-06,
        "meta_mean_motion_ddot": 0,
        "tle_line1": "1 54377U 22161A   25349.76060605  .00000107  00000+0  00000+0 0  9997",
        "tle_line2": "2 54377  64.7384 198.7985 0008585 204.4271 155.6126  2.13102109 23722"
      },
      "geometry": {
        "type": "Point",
        "coordinates": [
          -59.912192867134486,
          64.28119282017312
        ]
      }
    }
  ]
}